ONEWEB-0116             
1 48046U 21025E   26148.24425910  .00000323  00000+0  85058-3 0  9996
2 48046  87.8951 324.1888 0001787  87.0313 273.1021 13.13471734251032
ONEWEB-0150             
1 48047U 21025F   26148.22056490 -.00000223  00000+0 -64603-3 0  9992
2 48047  87.8947 324.1910 0001967  95.3286 264.8068 13.13469158250927
ONEWEB-0107             
1 48048U 21025G   26148.22225813 -.00000154  00000+0 -45620-3 0  9991
2 48048  87.8949 324.1864 0001724 100.5931 259.5393 13.13469431250909
ONEWEB-0101             
1 48049U 21025H   26148.18502148  .00000140  00000+0  34795-3 0  9990
2 48049  87.8940 324.2117 0001636  93.3796 266.7520 13.13469187250879
ONEWEB-0113             
1 48050U 21025J   26148.21583122 -.00000331  00000+0 -93631-3 0  9995
2 48050  87.8942 324.1174 0001846  91.5681 268.5660 13.13894652250987
ONEWEB-0112             
1 48051U 21025K   26148.22734066  .00000062  00000+0  13557-3 0  9990
2 48051  87.8951 324.1833 0001549  96.1474 263.9832 13.13469400250979
ONEWEB-0156             
1 48052U 21025L   26148.23580289  .00000255  00000+0  66375-3 0  9998
2 48052  87.8950 324.1918 0001812  96.6060 263.5276 13.13469191250955
ONEWEB-0161             
1 48053U 21025M   26147.90569903 -.00000287  00000+0 -81980-3 0  9998
2 48053  87.8942 324.2595 0001783  98.0215 262.1117 13.13469241250847
ONEWEB-0158             
1 48054U 21025N   26148.01742420  .00000319  00000+0  83751-3 0  9991
2 48054  87.8948 324.2344 0001729  81.3922 278.7403 13.13468441250983
ONEWEB-0157             
1 48055U 21025P   26148.19517513 -.00000135  00000+0 -40400-3 0  9996
2 48055  87.8952 324.2046 0001636 104.6851 255.4460 13.13468904250940
ONEWEB-0162             
1 48056U 21025Q   26148.24751473  .00000363  00000+0  95924-3 0  9990
2 48056  87.8944 324.1955 0001944  94.3635 265.7716 13.13469211250925
ONEWEB-0155             
1 48057U 21025R   26148.02588715  .00000210  00000+0  53897-3 0  9998
2 48057  87.8944 324.2358 0001618  94.4596 265.6718 13.13468119251039
ONEWEB-0149             
1 48058U 21025S   26148.20025321 -.00000245  00000+0 -70501-3 0  9999
2 48058  87.8952 324.2039 0001996  94.9859 265.1498 13.13469006250867
ONEWEB-0148             
1 48059U 21025T   26148.23918884  .00000304  00000+0  79644-3 0  9999
2 48059  87.8942 324.2042 0002255 102.7430 257.3951 13.13469088250994
ONEWEB-0160             
1 48060U 21025U   26148.17994609  .00000240  00000+0  62120-3 0  9993
2 48060  87.8942 324.2123 0002073  71.3583 288.7772 13.13469142250938
ONEWEB-0163             
1 48061U 21025V   26148.24088528  .00000328  00000+0  86288-3 0  9994
2 48061  87.8944 324.1933 0001650 101.4633 258.6682 13.13470300251069
