[{"OBJECT_NAME":"ONEWEB-0116","OBJECT_ID":"2021-025E","EPOCH":"2026-05-28T05:51:43.986240","MEAN_MOTION":13.13471734,"ECCENTRICITY":0.0001787,"INCLINATION":87.8951,"RA_OF_ASC_NODE":324.1888,"ARG_OF_PERICENTER":87.0313,"MEAN_ANOMALY":273.1021,"EPHEMERIS_TYPE":0,"CLASSIFICATION_TYPE":"U","NORAD_CAT_ID":48046,"ELEMENT_SET_NO":999,"REV_AT_EPOCH":25103,"BSTAR":0.00085058,"MEAN_MOTION_DOT":3.23e-06,"MEAN_MOTION_DDOT":0.0},{"OBJECT_NAME":"ONEWEB-0150","OBJECT_ID":"2021-025F","EPOCH":"2026-05-28T05:17:36.807360","MEAN_MOTION":13.13469158,"ECCENTRICITY":0.0001967,"INCLINATION":87.8947,"RA_OF_ASC_NODE":324.191,"ARG_OF_PERICENTER":95.3286,"MEAN_ANOMALY":264.8068,"EPHEMERIS_TYPE":0,"CLASSIFICATION_TYPE":"U","NORAD_CAT_ID":48047,"ELEMENT_SET_NO":999,"REV_AT_EPOCH":25092,"BSTAR":-0.00064603,"MEAN_MOTION_DOT":-2.23e-06,"MEAN_MOTION_DDOT":0.0},{"OBJECT_NAME":"ONEWEB-0107","OBJECT_ID":"2021-025G","EPOCH":"2026-05-28T05:20:03.102432","MEAN_MOTION":13.13469431,"ECCENTRICITY":0.0001724,"INCLINATION":87.8949,"RA_OF_ASC_NODE":324.1864,"ARG_OF_PERICENTER":100.5931,"MEAN_ANOMALY":259.5393,"EPHEMERIS_TYPE":0,"CLASSIFICATION_TYPE":"U","NORAD_CAT_ID":48048,"ELEMENT_SET_NO":999,"REV_AT_EPOCH":25090,"BSTAR":-0.00045620000000000003,"MEAN_MOTION_DOT":-1.54e-06,"MEAN_MOTION_DDOT":0.0},{"OBJECT_NAME":"ONEWEB-0101","OBJECT_ID":"2021-025H","EPOCH":"2026-05-28T04:26:25.855872","MEAN_MOTION":13.13469187,"ECCENTRICITY":0.0001636,"INCLINATION":87.894,"RA_OF_ASC_NODE":324.2117,"ARG_OF_PERICENTER":93.3796,"MEAN_ANOMALY":266.752,"EPHEMERIS_TYPE":0,"CLASSIFICATION_TYPE":"U","NORAD_CAT_ID":48049,"ELEMENT_SET_NO":999,"REV_AT_EPOCH":25087,"BSTAR":0.00034795,"MEAN_MOTION_DOT":1.4e-06,"MEAN_MOTION_DDOT":0.0},{"OBJECT_NAME":"ONEWEB-0113","OBJECT_ID":"2021-025J","EPOCH":"2026-05-28T05:10:47.817408","MEAN_MOTION":13.13894652,"ECCENTRICITY":0.0001846,"INCLINATION":87.8942,"RA_OF_ASC_NODE":324.1174,"ARG_OF_PERICENTER":91.5681,"MEAN_ANOMALY":268.566,"EPHEMERIS_TYPE":0,"CLASSIFICATION_TYPE":"U","NORAD_CAT_ID":48050,"ELEMENT_SET_NO":999,"REV_AT_EPOCH":25098,"BSTAR":-0.00093631,"MEAN_MOTION_DOT":-3.31e-06,"MEAN_MOTION_DDOT":0.0},{"OBJECT_NAME":"ONEWEB-0112","OBJECT_ID":"2021-025K","EPOCH":"2026-05-28T05:27:22.233024","MEAN_MOTION":13.134694,"ECCENTRICITY":0.0001549,"INCLINATION":87.8951,"RA_OF_ASC_NODE":324.1833,"ARG_OF_PERICENTER":96.1474,"MEAN_ANOMALY":263.9832,"EPHEMERIS_TYPE":0,"CLASSIFICATION_TYPE":"U","NORAD_CAT_ID":48051,"ELEMENT_SET_NO":999,"REV_AT_EPOCH":25097,"BSTAR":0.00013557,"MEAN_MOTION_DOT":6.2e-07,"MEAN_MOTION_DDOT":0.0},{"OBJECT_NAME":"ONEWEB-0156","OBJECT_ID":"2021-025L","EPOCH":"2026-05-28T05:39:33.369696","MEAN_MOTION":13.13469191,"ECCENTRICITY":0.0001812,"INCLINATION":87.895,"RA_OF_ASC_NODE":324.1918,"ARG_OF_PERICENTER":96.606,"MEAN_ANOMALY":263.5276,"EPHEMERIS_TYPE":0,"CLASSIFICATION_TYPE":"U","NORAD_CAT_ID":48052,"ELEMENT_SET_NO":999,"REV_AT_EPOCH":25095,"BSTAR":0.00066375,"MEAN_MOTION_DOT":2.55e-06,"MEAN_MOTION_DDOT":0.0},{"OBJECT_NAME":"ONEWEB-0161","OBJECT_ID":"2021-025M","EPOCH":"2026-05-27T21:44:12.396192","MEAN_MOTION":13.13469241,"ECCENTRICITY":0.0001783,"INCLINATION":87.8942,"RA_OF_ASC_NODE":324.2595,"ARG_OF_PERICENTER":98.0215,"MEAN_ANOMALY":262.1117,"EPHEMERIS_TYPE":0,"CLASSIFICATION_TYPE":"U","NORAD_CAT_ID":48053,"ELEMENT_SET_NO":999,"REV_AT_EPOCH":25084,"BSTAR":-0.0008198,"MEAN_MOTION_DOT":-2.87e-06,"MEAN_MOTION_DDOT":0.0},{"OBJECT_NAME":"ONEWEB-0158","OBJECT_ID":"2021-025N","EPOCH":"2026-05-28T00:25:05.450880","MEAN_MOTION":13.13468441,"ECCENTRICITY":0.0001729,"INCLINATION":87.8948,"RA_OF_ASC_NODE":324.2344,"ARG_OF_PERICENTER":81.3922,"MEAN_ANOMALY":278.7403,"EPHEMERIS_TYPE":0,"CLASSIFICATION_TYPE":"U","NORAD_CAT_ID":48054,"ELEMENT_SET_NO":999,"REV_AT_EPOCH":25098,"BSTAR":0.00083751,"MEAN_MOTION_DOT":3.19e-06,"MEAN_MOTION_DDOT":0.0},{"OBJECT_NAME":"ONEWEB-0157","OBJECT_ID":"2021-025P","EPOCH":"2026-05-28T04:41:03.131232","MEAN_MOTION":13.13468904,"ECCENTRICITY":0.0001636,"INCLINATION":87.8952,"RA_OF_ASC_NODE":324.2046,"ARG_OF_PERICENTER":104.6851,"MEAN_ANOMALY":255.446,"EPHEMERIS_TYPE":0,"CLASSIFICATION_TYPE":"U","NORAD_CAT_ID":48055,"ELEMENT_SET_NO":999,"REV_AT_EPOCH":25094,"BSTAR":-0.000404,"MEAN_MOTION_DOT":-1.35e-06,"MEAN_MOTION_DDOT":0.0},{"OBJECT_NAME":"ONEWEB-0162","OBJECT_ID":"2021-025Q","EPOCH":"2026-05-28T05:56:25.272672","MEAN_MOTION":13.13469211,"ECCENTRICITY":0.0001944,"INCLINATION":87.8944,"RA_OF_ASC_NODE":324.1955,"ARG_OF_PERICENTER":94.3635,"MEAN_ANOMALY":265.7716,"EPHEMERIS_TYPE":0,"CLASSIFICATION_TYPE":"U","NORAD_CAT_ID":48056,"ELEMENT_SET_NO":999,"REV_AT_EPOCH":25092,"BSTAR":0.00095924,"MEAN_MOTION_DOT":3.63e-06,"MEAN_MOTION_DDOT":0.0},{"OBJECT_NAME":"ONEWEB-0155","OBJECT_ID":"2021-025R","EPOCH":"2026-05-28T00:37:16.649760","MEAN_MOTION":13.13468119,"ECCENTRICITY":0.0001618,"INCLINATION":87.8944,"RA_OF_ASC_NODE":324.2358,"ARG_OF_PERICENTER":94.4596,"MEAN_ANOMALY":265.6718,"EPHEMERIS_TYPE":0,"CLASSIFICATION_TYPE":"U","NORAD_CAT_ID":48057,"ELEMENT_SET_NO":999,"REV_AT_EPOCH":25103,"BSTAR":0.0005389699999999999,"MEAN_MOTION_DOT":2.1e-06,"MEAN_MOTION_DDOT":0.0},{"OBJECT_NAME":"ONEWEB-0149","OBJECT_ID":"2021-025S","EPOCH":"2026-05-28T04:48:21.877344","MEAN_MOTION":13.13469006,"ECCENTRICITY":0.0001996,"INCLINATION":87.8952,"RA_OF_ASC_NODE":324.2039,"ARG_OF_PERICENTER":94.9859,"MEAN_ANOMALY":265.1498,"EPHEMERIS_TYPE":0,"CLASSIFICATION_TYPE":"U","NORAD_CAT_ID":48058,"ELEMENT_SET_NO":999,"REV_AT_EPOCH":25086,"BSTAR":-0.0007050100000000001,"MEAN_MOTION_DOT":-2.45e-06,"MEAN_MOTION_DDOT":0.0},{"OBJECT_NAME":"ONEWEB-0148","OBJECT_ID":"2021-025T","EPOCH":"2026-05-28T05:44:25.915776","MEAN_MOTION":13.13469088,"ECCENTRICITY":0.0002255,"INCLINATION":87.8942,"RA_OF_ASC_NODE":324.2042,"ARG_OF_PERICENTER":102.743,"MEAN_ANOMALY":257.3951,"EPHEMERIS_TYPE":0,"CLASSIFICATION_TYPE":"U","NORAD_CAT_ID":48059,"ELEMENT_SET_NO":999,"REV_AT_EPOCH":25099,"BSTAR":0.00079644,"MEAN_MOTION_DOT":3.04e-06,"MEAN_MOTION_DDOT":0.0},{"OBJECT_NAME":"ONEWEB-0160","OBJECT_ID":"2021-025U","EPOCH":"2026-05-28T04:19:07.342176","MEAN_MOTION":13.13469142,"ECCENTRICITY":0.0002073,"INCLINATION":87.8942,"RA_OF_ASC_NODE":324.2123,"ARG_OF_PERICENTER":71.3583,"MEAN_ANOMALY":288.7772,"EPHEMERIS_TYPE":0,"CLASSIFICATION_TYPE":"U","NORAD_CAT_ID":48060,"ELEMENT_SET_NO":999,"REV_AT_EPOCH":25093,"BSTAR":0.0006212,"MEAN_MOTION_DOT":2.4e-06,"MEAN_MOTION_DDOT":0.0},{"OBJECT_NAME":"ONEWEB-0163","OBJECT_ID":"2021-025V","EPOCH":"2026-05-28T05:46:52.488192","MEAN_MOTION":13.134703,"ECCENTRICITY":0.000165,"INCLINATION":87.8944,"RA_OF_ASC_NODE":324.1933,"ARG_OF_PERICENTER":101.4633,"MEAN_ANOMALY":258.6682,"EPHEMERIS_TYPE":0,"CLASSIFICATION_TYPE":"U","NORAD_CAT_ID":48061,"ELEMENT_SET_NO":999,"REV_AT_EPOCH":25106,"BSTAR":0.00086288,"MEAN_MOTION_DOT":3.28e-06,"MEAN_MOTION_DDOT":0.0}]